[{"line1":"1 53309U 98067TU  22221.81890967  .00039461  00000-0  66423-3 0  9994","line2":"2 53309  51.6415  70.8254 0004015 113.8378 246.3032 15.51312189  2997"},{"line1":"1 53310U 98067TV  22221.81884313  .00038163  00000-0  64330-3 0  9997","line2":"2 53310  51.6420  70.8256 0003679 115.2080 244.9292 15.51288964  3028"},{"line1":"1 53311U 98067TW  22221.81815473  .00043025  00000-0  72108-3 0  9994","line2":"2 53311  51.6414  70.8205 0003081  96.7836 263.3504 15.51397903  3042"},{"line1":"1 53312U 98067TX  22221.81826003  .00039644  00000-0  66606-3 0  9994","line2":"2 53312  51.6418  70.8210 0004215 116.1968 243.9455 15.51362511  2984"},{"line1":"1 53313U 98067TY  22221.81775867  .00041465  00000-0  69503-3 0  9999","line2":"2 53313  51.6418  70.8183 0003750 120.5242 239.6118 15.51408623  3031"},{"line1":"1 53315U 22009B   22219.77065502  .00444533  00000-0  36962-2 0  9999","line2":"2 53315  97.3844 321.6593 0013816 276.6996  83.2752 15.68711728 23410"},{"line1":"1 53323U 22089A   22221.56981243  .00014082  00000-0  34140-3 0  9994","line2":"2 53323  97.2457 319.6748 0010362 237.1525 122.8725 15.41117645  1190"},{"line1":"1 53325U 18084DX  22221.62894401  .01027331  00000-0  58338-1 0  9997","line2":"2 53325  97.6166 350.4976 0062482 286.9948  72.4440 15.08361187  1762"},{"line1":"1 53326U 18084DY  22219.33231515  .01480402  00000-0  46590-1 0  9993","line2":"2 53326  97.6397 348.8490 0068336 288.1620  71.2186 15.27693642  1451"},{"line1":"1 53327U 18084DZ  22221.80863512  .00280894  00000-0  32824-1 0  9994","line2":"2 53327  98.0532 351.1818 0064077   3.4051 356.7585 14.82094531  4429"},{"line1":"1 53328U 18084EA  22221.83094820  .00347755  00000-0  26372-1 0  9997","line2":"2 53328  97.8986 351.6121 0066214 310.4763  49.0698 14.98784554  3286"},{"line1":"1 53329U 18084EB  22221.33594729  .00247943  00000-0  16263-1 0  9992","line2":"2 53329  97.9160 351.7237 0015409 229.7144 130.2736 15.06333799  3205"},{"line1":"1 53330U 18084EC  22221.81416210  .00226635  00000-0  22229-1 0  9999","line2":"2 53330  97.9330 351.3238 0045220 344.5863  15.3974 14.90242717  3232"},{"line1":"1 53331U 18084ED  22218.32152446  .00593974  00000-0  21596-1 0  9999","line2":"2 53331  97.6350 347.6780 0062245 293.1666  66.3021 15.24024953  1378"},{"line1":"1 53332U 18084EE  22221.82311148  .01419684  00000-0  64345-1 0  9990","line2":"2 53332  97.6482 351.0324 0055328 287.8689  71.6514 15.16226910  1810"},{"line1":"1 53333U 18084EF  22219.30389795  .00395410  00000-0  19246-1 0  9993","line2":"2 53333  97.9367 349.9696 0022691 260.1209  99.7461 15.16312752  1488"},{"line1":"1 53334U 18084EG  22221.80141181  .01411714  00000-0  64925-1 0  9998","line2":"2 53334  97.6232 350.8794 0065748 290.4195  68.9985 15.15234132  1895"},{"line1":"1 53335U 18084EH  22221.81036903  .00919831  00000-0  32876-1 0  9997","line2":"2 53335  97.8340 352.6718 0041388 202.4615 157.4811 15.25221592  1820"},{"line1":"1 53336U 18084EJ  22221.79634243  .00359575  00000-0  41756-1 0  9996","line2":"2 53336  97.8995 350.5418 0075035 333.1509  26.5828 14.81392977  1866"},{"line1":"1 53337U 18084EK  22221.80624050  .00693342  00000-0  27278-1 0  9990","line2":"2 53337  97.8490 352.5678 0056065 227.5955 132.0529 15.21715415  1817"},{"line1":"1 53338U 18084EL  22221.84136611  .00817891  00000-0  40601-1 0  9998","line2":"2 53338  97.9413 352.4360 0022175 271.6509  88.2182 15.15111098  1829"},{"line1":"1 53339U 18084EM  22215.13463698  .00385357  00000-0  90250-2 0  9995","line2":"2 53339  97.8196 345.9592 0056205 246.7522 112.7799 15.39049711   767"},{"line1":"1 53340U 18084EN  22219.90637986  .01919577  00000-0  81317-1 0  9990","line2":"2 53340  98.0015 350.2151 0042322 345.5404  14.4614 15.19152040  1521"},{"line1":"1 53341U 18084EP  22221.47889183  .00498512  00000-0  52513-1 0  9990","line2":"2 53341  97.9575 350.5565 0052862 350.1593   9.8581 14.85994011  1732"},{"line1":"1 53342U 18084EQ  22221.43274743  .00170174  00000-0  19715-1 0  9995","line2":"2 53342  97.9626 350.6914 0062747  15.5780 344.7346 14.83134905  1817"},{"line1":"1 53343U 18084ER  22221.79586858  .00186073  00000-0  13302-1 0  9999","line2":"2 53343  97.9657 352.2695 0013348 205.1659 154.8916 15.03452466  1801"},{"line1":"1 53344U 18084ES  22221.58557829  .01438625  00000-0  64756-1 0  9996","line2":"2 53344  97.6312 350.7529 0058530 284.7648  74.7104 15.16279444  1737"},{"line1":"1 53345U 18084ET  22219.31816316  .03590597  00000-0  72441-1 0  9993","line2":"2 53345  98.0650 350.3821 0044749 307.8412  51.8787 15.41338059  1539"},{"line1":"1 53346U 22090A   22221.85075900  .00002933  00000-0  12922-3 0  9993","line2":"2 53346  97.4720 294.6358 0009745 238.6507 256.4567 15.22584023   877"},{"line1":"1 53347U 22090B   22221.78468841  .00006536  00000-0  27651-3 0  9994","line2":"2 53347  97.4725 294.5771 0011323 257.4579 250.6488 15.23489421   857"},{"line1":"1 53348U 22090C   22221.78473707  .00008608  00000-0  36283-3 0  9995","line2":"2 53348  97.4715 294.5768 0010998 258.0967 250.6383 15.23519253   859"},{"line1":"1 53349U 22090D   22221.82289698  .00067375  33504-5  47263-3 0  9991","line2":"2 53349  97.5170 294.9869 0157590   9.6210 350.7943 15.59232656   899"},{"line1":"1 53355U 22092A   22218.69424410 -.00000363  00000-0  00000+0 0  9993","line2":"2 53355  17.6265 311.1220 5642366 178.5879 176.9105  1.99558016    44"},{"line1":"1 53356U 22092B   22220.71703199 -.00000354  00000-0  00000-0 0  9995","line2":"2 53356  16.4924 313.2757 5659041 176.7735 189.7238  1.99531860    82"},{"line1":"1 53357U 22093A   22221.86603017  .00001972  00000-0  47265-4 0  9996","line2":"2 53357  49.9907 138.3874 0180729 169.8161 190.6538 15.32113259   808"},{"line1":"1 53358U 22093B   22221.08296260  .00010033  00000-0  19725-3 0  9996","line2":"2 53358  49.9886 142.2975 0180048 166.3583 194.2335 15.32296292   674"},{"line1":"1 53359U 22093C   22221.04902458  .00122596  00000-0  23308-2 0  9995","line2":"2 53359  50.2976 142.6806 0240850 183.7985 176.1152 15.21707417   674"},{"line1":"1 53360U 22093D   22221.52155488  .00106277  00000-0  22083-2 0  9990","line2":"2 53360  50.3325 140.5001 0251047 179.9898 180.1106 15.17770761   737"},{"line1":"1 53361U 22093E   22221.66360720  .00084640  00000-0  22828-2 0  9999","line2":"2 53361  49.7521 140.8757 0342522 168.4340 192.4727 14.94595374   759"},{"line1":"1 53362U 22093F   22221.20530130  .00083661  00000-0  23141-2 0  9995","line2":"2 53362  49.8062 143.1204 0356504 163.8913 197.3715 14.91316250   688"},{"line1":"1 53363U 22093G   22221.86000733  .00479737  00000-0  59857-2 0  9995","line2":"2 53363  50.0322 138.2311 0211475 181.3164 178.7074 15.36059992   808"},{"line1":"1 53364U 22093H   22221.77657569  .00000423  00000-0  51167-4 0  9991","line2":"2 53364  50.0288 139.9409 0110680 220.7309 138.5350 15.00012106   764"},{"line1":"1 53365U 22094A   22216.96995833  .00001843 -58274-5  00000-0 0  9992","line2":"2 53365  29.5000 147.2458 0003300 140.4700 307.5200 16.09976711    07"},{"line1":"1 53367U 22095A   22221.82818024 -.00000080  00000-0  00000+0 0  9992","line2":"2 53367  97.4351 295.6944 0075962  79.1035  30.6415 15.24190766   109"},{"line1":"1 53368U 22095B   22221.49799293 -.00000081  00000-0  00000+0 0  9993","line2":"2 53368  97.4147 295.4333 0083853  74.0152  25.2104 15.24258923    43"},{"line1":"1 53369U 22095C   22221.49785258 -.00000080  00000-0  00000+0 0  9999","line2":"2 53369  97.4105 295.4306 0080599  75.4483  23.2747 15.24574726    47"},{"line1":"1 53387U 22095D   22221.83249645 -.00000082  00000-0  00000+0 0  9994","line2":"2 53387  97.4092 295.7548 0086071  70.7298  65.8227 15.25537624   105"},{"line1":"1 81014U          20023.92522148 +.00019573 +00000+0 +17851-2 0  9992","line2":"2 81014  51.3284 230.0612 2805399 228.6870 103.6492  9.64934727215455"},{"line1":"1 81036U          22221.11988546 +.00005249 +00000+0 +93826-2 0  9998","line2":"2 81036  65.9979   2.2739 2718872 106.8987 284.5014  9.16081722289900"},{"line1":"1 81037U          22220.44640788 +.00011106 +00000+0 +78516-3 0  9996","line2":"2 81037  62.1980 236.1088 0233547 119.1410 243.3270 14.85888030 26998"},{"line1":"1 81052U          22220.28481979 +.00000965 +00000+0 +33375-3 0  9995","line2":"2 81052  65.7779 180.6465 0641518 177.5928 182.8489 13.62254664432663"},{"line1":"1 81067U          20025.20490672 +.00001191 +00000+0 +65531-3 0  9995","line2":"2 81067  99.1053 119.5017 0053431 290.0824  69.4602 14.12946898258482"},{"line1":"1 81069U          22221.27800505 +.00002087 +00000+0 +33847-2 0  9993","line2":"2 81069 100.3325  52.4807 0069007 139.2345 221.3979 13.48513638350626"},{"line1":"1 81073U          22219.37788982 +.00006579 +00000+0 +61578-2 0  9992","line2":"2 81073  61.6003 223.3127 4720231 234.9446  71.3938  5.89204823528746"},{"line1":"1 81078U          22219.92247549 +.00000668 +00000+0 +21212-1 0  9990","line2":"2 81078  65.1178  33.3070 0190234 269.3235 245.7146 11.21847561357414"},{"line1":"1 81096U 83075    20014.03973377 +.00001125 +00000+0 +94856-4 0  9997","line2":"2 81096  97.4156 317.5600 0197800 208.8315 150.1858 14.86243531285035"},{"line1":"1 81111U          22221.43036733 +.00022555 +00000+0 +22857-2 0  9994","line2":"2 81111  62.8421   7.1141 4366865 310.3042  18.9975  6.73775352184100"},{"line1":"1 81114U          20024.40587433 +.00018084 +00000+0 +42499-3 0  9998","line2":"2 81114  63.0193 276.0864 0021404  40.5612 319.7098 15.41897126301871"},{"line1":"1 81122U          22220.66782383 +.00008428 +00000+0 +33667-2 0  9993","line2":"2 81122  97.6261 182.4218 0268158   9.6317 350.9856 14.10890066402017"},{"line1":"1 81123U 70025    22215.94240060 +.00000400 +00000+0 +44904-3 0  9993","line2":"2 81123 100.0431 211.6751 0004133  13.9317 346.1945 13.77837013437123"},{"line1":"1 81134U          22221.30250579 +.00000128 +00000+0 +44608-3 0  9992","line2":"2 81134  90.2766 335.5462 0022324 345.8479  14.2011 12.92406440304806"}]